PERSEUS-M1              
1 40039U 14033AF  26160.07469549  .00001427  00000+0  13384-3 0  9991
2 40039  97.9642 104.0737 0010726 332.5515  27.5137 14.95610260649421
POLYITAN-1              
1 40042U 14033AJ  26160.02430242  .00015996  00000+0  50413-3 0  9998
2 40042  98.0953 185.5149 0007990 165.0271 195.1207 15.32968455652349
TIGRISAT                
1 40043U 14033AK  26159.96351941  .00002420  00000+0  28276-3 0  9998
2 40043  97.7823 310.1645 0050700 101.4521 259.2395 14.85130632644401
AEROCUBE 6A             
1 40045U 14033AM  26159.20672198  .00005623  00000+0  47354-3 0  9993
2 40045  97.7225 326.2518 0039366  47.7354 312.7195 14.98009378645272
AEROCUBE 6B             
1 40046U 14033AN  26159.88512763  .00006500  00000+0  52624-3 0  9990
2 40046  97.7230 326.6943 0039001  37.4874 322.9057 14.99481612645517
CANX-4                  
1 40055U 14034C   26160.18089848  .00000855  00000+0  11697-3 0  9991
2 40055  98.3133  35.1997 0013686  41.4631 318.7616 14.81249771643346
CANX-5                  
1 40056U 14034D   26160.17942455  .00000864  00000+0  11810-3 0  9990
2 40056  98.3135  35.2414 0013696  41.5932 318.6319 14.81266924634157
UKUBE-1                 
1 40074U 14037F   26159.90408574  .00008462  00000+0  47786-3 0  9994
2 40074  98.4239 162.3063 0002120 145.1517 214.9850 15.13420620647305
BRITE-PL2 (HEWELIUSZ)   
1 40119U 14049B   26160.20533863  .00001945  00000+0  18502-3 0  9995
2 40119  97.9089 272.1446 0015170 132.2094 228.0416 14.94568381640259
AEROCUBE 5C             
1 40965U 15058B   26160.05732801  .00002192  00000+0  20116-3 0  9990
2 40965  64.7678 287.8809 0130443  66.4577 295.0176 14.91414682364447
AEROCUBE 7              
1 40966U 15058C   26160.00998183  .00002914  00000+0  24013-3 0  9995
2 40966  64.7627 270.4275 0120157  64.9556 296.3975 14.95672818364732
FOX-1A (AO-85)          
1 40967U 15058D   26159.76689639  .00003039  00000+0  27655-3 0  9994
2 40967  64.7758 305.1507 0129970  59.8929 301.4993 14.90929725112311
SINOD-D 1               
1 40968U 15058E   26160.05577030  .00002922  00000+0  24048-3 0  9993
2 40968  64.7760 284.3760 0118585  56.3257 304.9098 14.95852379115446
SNAP-3 ALICE            
1 40970U 15058G   26160.02783439  .00103516  00000+0  13186-2 0  9996
2 40970  64.7497 132.0963 0030505  17.0094 343.2065 15.58213244115619
LMRST-SAT               
1 40971U 15058H   26160.12262100  .00002204  00000+0  20612-3 0  9990
2 40971  64.7764 300.3679 0131664  61.7663 299.6668 14.90552711112358
SNAP-3 EDDIE            
1 40972U 15058J   26160.15254421  .00104650  00000+0  12738-2 0  9998
2 40972  64.7418 122.4500 0030236  21.0343 339.2038 15.59414443117776
PROPCUBE 3              
1 40973U 15058K   26159.70947703  .00003403  00000+0  28660-3 0  9996
2 40973  64.7692 279.0224 0123650  63.2696 298.1009 14.94210956113537
BISONSAT                
1 40974U 15058L   26160.18362645  .00008623  00000+0  42265-3 0  9993
2 40974  64.7591 199.5170 0078440  50.5680 310.2352 15.16022735114405
SNAP-3 JIMI             
1 40975U 15058M   26159.33532604  .00004322  00000+0  30225-3 0  9998
2 40975  64.7649 247.7776 0105719  58.9972 302.1477 15.02222356112899
PROPCUBE 1 (FLORA)      
1 40976U 15058N   26159.93582965  .00002356  00000+0  22786-3 0  9998
2 40976  64.7755 320.8090 0130389  64.1517 297.2973 14.89182375115039
SINOD-D 3               
1 40977U 15058P   26160.00753572  .00002949  00000+0  25477-3 0  9991
2 40977  64.7734 301.3607 0118894  61.3845 299.9167 14.93963071113537
HORYU-4                 
1 41340U 16012D   26158.66010672  .00317249  00000+0  10211-2 0  9994
2 41340  30.9848 148.6331 0002832 206.9121 153.1392 15.89027763569291
RAVAN                   
1 41849U 16067B   26159.93181534  .00047917  00000+0  74213-3 0  9990
2 41849  97.9900  48.5545 0005635  53.9617 306.2156 15.53885808526415
CELTEE 1                
1 41850U 16067C   26159.38368841  .00005104  00000+0  24342-3 0  9999
2 41850  98.0685  25.3505 0000625 106.7454 253.3848 15.19595408524546
OPTICUBE 04             
1 41851U 16067D   26160.12532714  .00002307  00000+0  14752-3 0  9992
2 41851  98.0714  11.9886 0016505 140.9303 219.3120 15.09626427523954
AEROCUBE 8D             
1 41852U 16067E   26160.08143811  .00005853  00000+0  24291-3 0  9992
2 41852  98.0697  29.6364 0004224 143.3321 216.8204 15.24283465524835
AEROCUBE 8C             
1 41853U 16067F   26160.17338059  .00006962  00000+0  28603-3 0  9996
2 41853  98.0570  26.9733 0006821  90.4870 269.7147 15.24531499524849
CORVUS BC2              
1 42846U 17042X   26159.89095626  .00002800  00000+0  19451-3 0  9998
2 42846  97.4057 321.5648 0014217 135.9338 224.3025 15.06243536485813
CORVUS BC1              
1 42847U 17042Y   26159.42153111  .00002771  00000+0  19174-3 0  9991
2 42847  97.4085 321.9220 0013306 115.8711 244.3891 15.06407941485775
MAKERSAT 0              
1 43016U 17073D   26158.64340438  .00021201  00000+0  58054-3 0  9996
2 43016  97.4640  41.0894 0106135 307.5668  51.5969 15.31756991465000
