OBJECT_NAME,OBJECT_ID,EPOCH,MEAN_MOTION,ECCENTRICITY,INCLINATION,RA_OF_ASC_NODE,ARG_OF_PERICENTER,MEAN_ANOMALY,EPHEMERIS_TYPE,CLASSIFICATION_TYPE,NORAD_CAT_ID,ELEMENT_SET_NO,REV_AT_EPOCH,BSTAR,MEAN_MOTION_DOT,MEAN_MOTION_DDOT
PERSEUS-M1,2014-033AF,2026-06-09T01:47:33.690336,14.95610260,.0010726,97.9642,104.0737,332.5515,27.5137,0,U,40039,999,64942,.13384E-3,.1427E-4,0
POLYITAN-1,2014-033AJ,2026-06-09T00:34:59.729088,15.32968455,.000799,98.0953,185.5149,165.0271,195.1207,0,U,40042,999,65234,.50413E-3,.15996E-3,0
TIGRISAT,2014-033AK,2026-06-08T23:07:28.077024,14.85130632,.00507,97.7823,310.1645,101.4521,259.2395,0,U,40043,999,64440,.28276E-3,.242E-4,0
AEROCUBE 6A,2014-033AM,2026-06-08T04:57:40.779072,14.98009378,.0039366,97.7225,326.2518,47.7354,312.7195,0,U,40045,999,64527,.47354E-3,.5623E-4,0
AEROCUBE 6B,2014-033AN,2026-06-08T21:14:35.027232,14.99481612,.0039001,97.7230,326.6943,37.4874,322.9057,0,U,40046,999,64551,.52624E-3,.65E-4,0
CANX-4,2014-034C,2026-06-09T04:20:29.628672,14.81249771,.0013686,98.3133,35.1997,41.4631,318.7616,0,U,40055,999,64334,.11697E-3,.855E-5,0
CANX-5,2014-034D,2026-06-09T04:18:22.281120,14.81266924,.0013696,98.3135,35.2414,41.5932,318.6319,0,U,40056,999,63415,.1181E-3,.864E-5,0
UKUBE-1,2014-037F,2026-06-08T21:41:53.007936,15.13420620,.000212,98.4239,162.3063,145.1517,214.9850,0,U,40074,999,64730,.47786E-3,.8462E-4,0
BRITE-PL2 (HEWELIUSZ),2014-049B,2026-06-09T04:55:41.257632,14.94568381,.001517,97.9089,272.1446,132.2094,228.0416,0,U,40119,999,64025,.18502E-3,.1945E-4,0
AEROCUBE 5C,2015-058B,2026-06-09T01:22:33.140064,14.91414682,.0130443,64.7678,287.8809,66.4577,295.0176,0,U,40965,999,36444,.20116E-3,.2192E-4,0
AEROCUBE 7,2015-058C,2026-06-09T00:14:22.430112,14.95672818,.0120157,64.7627,270.4275,64.9556,296.3975,0,U,40966,999,36473,.24013E-3,.2914E-4,0
FOX-1A (AO-85),2015-058D,2026-06-08T18:24:19.848096,14.90929725,.012997,64.7758,305.1507,59.8929,301.4993,0,U,40967,999,11231,.27655E-3,.3039E-4,0
SINOD-D 1,2015-058E,2026-06-09T01:20:18.553920,14.95852379,.0118585,64.7760,284.3760,56.3257,304.9098,0,U,40968,999,11544,.24048E-3,.2922E-4,0
SNAP-3 ALICE,2015-058G,2026-06-09T00:40:04.891296,15.58213244,.0030505,64.7497,132.0963,17.0094,343.2065,0,U,40970,999,11561,.13186E-2,.103516E-2,0
LMRST-SAT,2015-058H,2026-06-09T02:56:34.454400,14.90552711,.0131664,64.7764,300.3679,61.7663,299.6668,0,U,40971,999,11235,.20612E-3,.2204E-4,0
SNAP-3 EDDIE,2015-058J,2026-06-09T03:39:39.819744,15.59414443,.0030236,64.7418,122.4500,21.0343,339.2038,0,U,40972,999,11777,.12738E-2,.10465E-2,0
PROPCUBE 3,2015-058K,2026-06-08T17:01:38.815392,14.94210956,.012365,64.7692,279.0224,63.2696,298.1009,0,U,40973,999,11353,.2866E-3,.3403E-4,0
BISONSAT,2015-058L,2026-06-09T04:24:25.325280,15.16022735,.007844,64.7591,199.5170,50.5680,310.2352,0,U,40974,999,11440,.42265E-3,.8623E-4,0
SNAP-3 JIMI,2015-058M,2026-06-08T08:02:52.169856,15.02222356,.01057191,64.7649,247.7776,58.9972,302.1477,0,U,40975,999,11289,.30224973E-3,.4322E-4,0
PROPCUBE 1 (FLORA),2015-058N,2026-06-08T22:27:35.681760,14.89182375,.0130389,64.7755,320.8090,64.1517,297.2973,0,U,40976,999,11503,.22786E-3,.2356E-4,0
SINOD-D 3,2015-058P,2026-06-09T00:10:51.086208,14.93963071,.0118894,64.7734,301.3607,61.3845,299.9167,0,U,40977,999,11353,.25477E-3,.2949E-4,0
HORYU-4,2016-012D,2026-06-07T15:50:33.220608,15.89027763,.00028324,30.9848,148.6331,206.9121,153.1392,0,U,41340,999,56929,.1021123E-2,.317249E-2,0
RAVAN,2016-067B,2026-06-08T22:21:48.845376,15.53885808,.0005635,97.9900,48.5545,53.9617,306.2156,0,U,41849,999,52641,.74213E-3,.47917E-3,0
CELTEE 1,2016-067C,2026-06-08T09:12:30.678624,15.19595408,.00006258,98.0685,25.3505,106.7454,253.3848,0,U,41850,999,52454,.24341958E-3,.5104E-4,0
OPTICUBE 04,2016-067D,2026-06-09T03:00:28.264896,15.09626427,.0016505,98.0714,11.9886,140.9303,219.3120,0,U,41851,999,52395,.14752E-3,.2307E-4,0
AEROCUBE 8D,2016-067E,2026-06-09T01:57:16.252704,15.24283465,.0004224,98.0697,29.6364,143.3321,216.8204,0,U,41852,999,52483,.24291E-3,.5853E-4,0
AEROCUBE 8C,2016-067F,2026-06-09T04:09:40.082976,15.24531499,.0006821,98.0570,26.9733,90.4870,269.7147,0,U,41853,999,52484,.28603E-3,.6962E-4,0
CORVUS BC2,2017-042X,2026-06-08T21:22:58.620864,15.06243536,.0014217,97.4057,321.5648,135.9338,224.3025,0,U,42846,999,48581,.19451E-3,.28E-4,0
CORVUS BC1,2017-042Y,2026-06-08T10:07:00.287904,15.06407941,.00133065,97.4085,321.9220,115.8711,244.3891,0,U,42847,999,48577,.19173968E-3,.2771E-4,0
MAKERSAT 0,2017-073D,2026-06-07T15:26:30.138432,15.31756991,.01061352,97.4640,41.0894,307.5668,51.5969,0,U,43016,999,46500,.58053729E-3,.21201E-3,0
